[{"OBJECT_NAME":"STARLINK-34705","OBJECT_ID":"2025-158A","EPOCH":"2026-03-09T15:06:28.522656","MEAN_MOTION":15.05649645,"ECCENTRICITY":0.000217,"INCLINATION":97.6031,"RA_OF_ASC_NODE":293.9692,"ARG_OF_PERICENTER":66.89,"MEAN_ANOMALY":293.2555,"EPHEMERIS_TYPE":0,"CLASSIFICATION_TYPE":"U","NORAD_CAT_ID":64932,"ELEMENT_SET_NO":999,"REV_AT_EPOCH":3534,"BSTAR":0.00025057,"MEAN_MOTION_DOT":3.556e-5,"MEAN_MOTION_DDOT":0},{"OBJECT_NAME":"PSLV DEB","OBJECT_ID":"2001-049CG","EPOCH":"2026-03-09T17:57:10.653408","MEAN_MOTION":15.10779615,"ECCENTRICITY":0.00259315,"INCLINATION":97.9011,"RA_OF_ASC_NODE":146.9612,"ARG_OF_PERICENTER":307.1678,"MEAN_ANOMALY":170.9563,"EPHEMERIS_TYPE":0,"CLASSIFICATION_TYPE":"U","NORAD_CAT_ID":27136,"ELEMENT_SET_NO":999,"REV_AT_EPOCH":32989,"BSTAR":0.00047952924,"MEAN_MOTION_DOT":7.956e-5,"MEAN_MOTION_DDOT":0}]
